{
    "links": {
        "self": "http://www.neowsapp.com/rest/v1/neo/3560080?api_key=iIulBulltgU6a56xZRHN4H3l9WmuAYTsLGpBGhQ2"
    },
    "id": "3560080",
    "neo_reference_id": "3560080",
    "name": "(2011 FR6)",
    "designation": "2011 FR6",
    "nasa_jpl_url": "http://ssd.jpl.nasa.gov/sbdb.cgi?sstr=3560080",
    "absolute_magnitude_h": 23.6,
    "estimated_diameter": {
        "kilometers": {
            "estimated_diameter_min": 0.0506471459,
            "estimated_diameter_max": 0.1132504611
        },
        "meters": {
            "estimated_diameter_min": 50.6471458835,
            "estimated_diameter_max": 113.2504610618
        },
        "miles": {
            "estimated_diameter_min": 0.0314706677,
            "estimated_diameter_max": 0.0703705522
        },
        "feet": {
            "estimated_diameter_min": 166.1651821003,
            "estimated_diameter_max": 371.5566426699
        }
    },
    "is_potentially_hazardous_asteroid": false,
    "close_approach_data": [
        {
            "close_approach_date": "2011-04-03",
            "close_approach_date_full": "2011-Apr-03 22:12",
            "epoch_date_close_approach": 1301868720000,
            "relative_velocity": {
                "kilometers_per_second": "12.2934492127",
                "kilometers_per_hour": "44256.4171656829",
                "miles_per_hour": "27499.2165438656"
            },
            "miss_distance": {
                "astronomical": "0.1274534056",
                "lunar": "49.5793747784",
                "kilometers": "19066758.002006072",
                "miles": "11847534.0449929136"
            },
            "orbiting_body": "Earth"
        },
        {
            "close_approach_date": "2011-08-06",
            "close_approach_date_full": "2011-Aug-06 19:03",
            "epoch_date_close_approach": 1312657380000,
            "relative_velocity": {
                "kilometers_per_second": "10.3918476749",
                "kilometers_per_hour": "37410.6516297534",
                "miles_per_hour": "23245.5240640543"
            },
            "miss_distance": {
                "astronomical": "0.4336620108",
                "lunar": "168.6945222012",
                "kilometers": "64874913.115596996",
                "miles": "40311401.7454947048"
            },
            "orbiting_body": "Earth"
        }
    ],
    "orbital_data": {
        "orbit_id": "11",
        "orbit_determination_date": "2017-04-06 08:56:33",
        "first_observation_date": "2011-03-27",
        "last_observation_date": "2011-04-07",
        "data_arc_in_days": 11,
        "observations_used": 24,
        "orbit_uncertainty": "8",
        "minimum_orbit_intersection": ".121396",
        "jupiter_tisserand_invariant": "4.725",
        "epoch_osculation": "2455650.5",
        "eccentricity": ".2243768721740756",
        "semi_major_axis": "1.368365775034108",
        "inclination": "22.67272557842318",
        "ascending_node_longitude": "7.499815963978698",
        "orbital_period": "584.6577780961499",
        "perihelion_distance": "1.0613361424419",
        "perihelion_argument": "227.8907651779607",
        "aphelion_distance": "1.675395407626316",
        "perihelion_time": "2455700.545305178459",
        "mean_anomaly": "329.1848624285601",
        "mean_motion": ".6157448228471121",
        "equinox": "J2000",
        "orbit_class": {
            "orbit_class_type": "AMO",
            "orbit_class_description": "Near-Earth asteroid orbits similar to that of 1221 Amor",
            "orbit_class_range": "1.017 AU < q (perihelion) < 1.3 AU"
        }
    },
    "is_sentry_object": false
}